[{"OBJECT_NAME":"TEVEL2-9","OBJECT_ID":"2025-052AD","EPOCH":"2026-03-09T16:51:18.321696","MEAN_MOTION":15.28633834,"ECCENTRICITY":0.000799,"INCLINATION":97.4057,"RA_OF_ASC_NODE":324.3929,"ARG_OF_PERICENTER":124.2475,"MEAN_ANOMALY":235.9522,"EPHEMERIS_TYPE":0,"CLASSIFICATION_TYPE":"U","NORAD_CAT_ID":63237,"ELEMENT_SET_NO":999,"REV_AT_EPOCH":5481,"BSTAR":0.00067240159,"MEAN_MOTION_DOT":0.00018694,"MEAN_MOTION_DDOT":0},{"OBJECT_NAME":"STARLINK-35737","OBJECT_ID":"2025-244P","EPOCH":"2026-03-09T16:53:28.367520","MEAN_MOTION":15.3017748,"ECCENTRICITY":0.00010124,"INCLINATION":53.1593,"RA_OF_ASC_NODE":229.7067,"ARG_OF_PERICENTER":58.869,"MEAN_ANOMALY":301.241,"EPHEMERIS_TYPE":0,"CLASSIFICATION_TYPE":"U","NORAD_CAT_ID":66219,"ELEMENT_SET_NO":999,"REV_AT_EPOCH":2166,"BSTAR":0.00098589878,"MEAN_MOTION_DOT":0.00028934,"MEAN_MOTION_DDOT":0}]
