TEVEL2-9                
1 63237U 25052AD  26068.70229538  .00018694  00000+0  67240-3 0  9992
2 63237  97.4057 324.3929 0007990 124.2475 235.9522 15.28633834 54816
STARLINK-35737          
1 66219U 25244P   26068.70380054  .00028934  00000+0  98590-3 0  9999
2 66219  53.1593 229.7067 0001012  58.8690 301.2410 15.30177480 21667
